TIANWANG 1C (TW-1C)     
1 40926U 15051B   17244.06436890  .00008069  00000-0  18049-3 0  9995
2 40926  97.2242 283.0598 0009559 250.9479 192.8024 15.43699930108620
TIANWANG 1B (TW-1B)     
1 40927U 15051C   17244.18705443  .00007929  00000-0  18420-3 0  9999
2 40927  97.2331 283.1646 0009317 263.8344 167.3699 15.42577769108585
TIANWANG 1A (TW-1A)     
1 40928U 15051D   17244.15306565  .00003049  00000-0  87483-4 0  9994
2 40928  97.2220 278.6018 0010583 287.9387 110.4948 15.36582869108368
LAPAN-A2 (IO-86)        
1 40931U 15052B   17244.03178597  .00000712  00000-0  10110-4 0  9995
2 40931   5.9989  51.9302 0013411 241.1759 118.7099 14.76539065104194
LQSAT                   
1 40958U 15057A   17244.05886568  .00000030  00000-0  12397-4 0  9997
2 40958  97.9731 318.0353 0017959 178.7390 181.3883 14.72980219102281
CHUBUSAT-2              
1 41338U 16012B   17243.69278107  .00000549  00000-0  36538-4 0  9993
2 41338  31.0044 352.7059 0013825  86.6504 273.5712 14.99783429 84333
CHUBUSAT-3              
1 41339U 16012C   17243.67728151  .00000396  00000-0  24274-4 0  9995
2 41339  31.0123 351.8265 0013630  92.5044 267.7153 14.99984891 84318
OUFTI-1                 
1 41458U 16025C   17244.12562773  .00002768  00000-0  15013-3 0  9993
2 41458  98.1792 286.0418 0173948  36.2914 324.9963 15.03454728 73988
E-ST@R-II               
1 41459U 16025D   17243.15647738  .00001527  00000-0  84942-4 0  9991
2 41459  98.1814 284.9568 0175451  39.9262 321.4719 15.03268876 73836
AAUSAT 4                
1 41460U 16025E   17244.17205619  .00003351  00000-0  18071-3 0  9990
2 41460  98.1736 286.1771 0167550  34.6030 326.6000 15.04266938 74016
NUSAT 1 (LO-87)         
1 41557U 16033B   17244.21783030  .00002664  00000-0  10219-3 0  9991
2 41557  97.4596 323.7298 0015909  98.7606 261.5435 15.27270882 70036
BEESAT-4                
1 41619U 16040W   17243.13117430  .00002200  00000-0  10226-3 0  9997
2 41619  97.4561 304.7786 0012645 159.2538 200.9213 15.20982484 53986
PRATHAM                 
1 41783U 16059A   17244.15390954  .00000084  00000-0  25812-4 0  9992
2 41783  98.1603 304.7146 0032300 283.1113  76.6485 14.62853554 49703
ALSAT 1N                
1 41789U 16059G   17244.01121534  .00000077  00000-0  23865-4 0  9997
2 41789  98.1600 305.2207 0027081 277.9001  81.9134 14.64068389 49703
NAYIF-1 (EO-88)         
1 42017U 17008BX  17243.72432422  .00002978  00000-0  12883-3 0  9994
2 42017  97.4889 305.0180 0005453 329.2421  30.8495 15.23229081 29988
LILACSAT-1              
1 42725U 98067ME  17244.01054658  .00022404  00000-0  31290-3 0  9997
2 42725  51.6404  19.2558 0006411 233.3997 126.6406 15.56756873 15284
MAX VALIER SAT          
1 42778U 17036P   17243.17869779  .00001576  00000-0  75208-4 0  9991
2 42778  97.4453 302.1154 0013048  12.8178 347.3387 15.20484399 10428
